BEIDOU-3 M19 (C41)      
1 44864U 19090A   26061.26275238 -.00000008  00000+0  00000+0 0  9992
2 44864  56.4657  66.3234 0020408 291.3317 195.2232  1.86231220 42246
BEIDOU-3 M20 (C42)      
1 44865U 19090B   26061.06620792 -.00000006  00000+0  00000+0 0  9998
2 44865  56.4671  66.3642 0017812 302.8548 141.5369  1.86231168 42229
BEIDOU-3 G2 (C60)       
1 45344U 20017A   26061.88014759 -.00000155  00000+0  00000+0 0  9997
2 45344   2.6513  45.5391 0002703 300.6479 211.3441  1.00271169 22194
COSMOS 2545 (760)       
1 45358U 20018A   26061.23330861 -.00000045  00000+0  00000+0 0  9995
2 45358  64.4190 316.1803 0008335 250.8861 109.0821  2.13102173 46384
BEIDOU-3 G3 (C61)       
1 45807U 20040A   26061.66056468 -.00000369  00000+0  00000+0 0  9993
2 45807   2.1853  67.1048 0004209 314.8569 126.7245  1.00276174 21000
GPS BIII-3  (PRN 23)    
1 45854U 20041A   26061.22387252 -.00000073  00000+0  00000+0 0  9998
2 45854  56.6045  33.0935 0061351 205.2559 289.6941  2.00560558 41893
GALAXY 30 (WAAS/PRN 135)
1 46114U 20056C   26061.70584780  .00000020  00000+0  00000+0 0  9993
2 46114   0.0178 122.3295 0002202 216.8886 310.3450  1.00272146 20228
COSMOS 2547 (705K)      
1 46805U 20075A   26061.42179443 -.00000012  00000+0  00000+0 0  9998
2 46805  64.5998 196.0353 0006707 229.5207 130.3796  2.13100073 41630
GPS BIII-4  (PRN 14)    
1 46826U 20078A   26061.80797074 -.00000010  00000+0  00000+0 0  9990
2 46826  54.0020 215.0904 0068149 204.2599 325.6195  2.00565488 39370
QZS-1R (QZSS/PRN 196)   
1 49336U 21096A   26060.38447264 -.00000259  00000+0  00000+0 0  9990
2 49336  37.2374  81.1754 0747027 269.6443  80.6815  1.00291836 15925
GSAT0223 (GALILEO 27)   
1 49809U 21116A   26048.03988929 -.00000078  00000+0  00000+0 0  9993
2 49809  57.2005 344.9238 0002865 278.1950 264.6358  1.70475508 26130
GSAT0224 (GALILEO 28)   
1 49810U 21116B   26054.89517960 -.00000088  00000+0  00000+0 0  9990
2 49810  57.1984 344.7369 0002182 291.9502 250.7131  1.70475193 26278
COSMOS 2557 (706K)      
1 52984U 22075A   26060.64837998 -.00000049  00000+0  00000+0 0  9994
2 52984  64.3609 318.2759 0011670 283.4611  76.4636  2.13101625 28422
COSMOS 2559 (707K)      
1 54031U 22130A   26059.99848280 -.00000049  00000+0  00000+0 0  9993
2 54031  64.3338 318.3857 0010601 182.1671 177.8809  2.13101169 26384
GPS BIII-6  (PRN 28)    
1 55268U 23009A   26059.76489831 -.00000028  00000+0  00000+0 0  9997
2 55268  55.1093 152.7809 0004758 333.1698  25.1517  2.00549258 23067
